{
    "version": 2016092801,
    "min_api": 1,
    "data": [{
        "city": "ABETONE",
        "shortname": "ABETONE",
        "zip": "51021",
        "province": "PT",
        "extracharge": 10.91
    }, {
        "city": "ACCIANO",
        "shortname": "ACCIANO",
        "zip": "67020",
        "province": "AQ",
        "extracharge": 10.91
    }, {
        "city": "ACERETO",
        "shortname": "ACERETO",
        "zip": "39032",
        "province": "BZ",
        "extracharge": 10.91
    }, {
        "city": "ACQUACALDA",
        "shortname": "ACQUACALDA",
        "zip": "98050",
        "province": "ME",
        "extracharge": 10.91
    }, {
        "city": "ACQUACALDA",
        "shortname": "ACQUACALDA",
        "zip": "98055",
        "province": "ME",
        "extracharge": 10.91
    }, {
        "city": "ACQUAFREDDA",
        "shortname": "ACQUAFREDDA",
        "zip": "85046",
        "province": "PZ",
        "extracharge": 10.91
    }, {
        "city": "ACRI",
        "shortname": "ACRI",
        "zip": "87041",
        "province": "CS",
        "extracharge": 10.91
    }, {
        "city": "AFRICO",
        "shortname": "AFRICO",
        "zip": "89030",
        "province": "RC",
        "extracharge": 10.91
    }, {
        "city": "AGEROLA",
        "shortname": "AGEROLA",
        "zip": "80051",
        "province": "NA",
        "extracharge": 10.91
    }, {
        "city": "ALBIANO",
        "shortname": "ALBIANO",
        "zip": "38041",
        "province": "TN",
        "extracharge": 10.91
    }, {
        "city": "ALDINO",
        "shortname": "ALDINO",
        "zip": "39040",
        "province": "BZ",
        "extracharge": 10.91
    }, {
        "city": "ALESSANDRIA DEL CARRETTO",
        "shortname": "ALESSANDRIADELCARRETTO",
        "zip": "87070",
        "province": "CS",
        "extracharge": 10.91
    }, {
        "city": "ALICUDI",
        "shortname": "ALICUDI",
        "zip": "98050",
        "province": "ME",
        "extracharge": 10.91
    }, {
        "city": "ALICUDI PORTO",
        "shortname": "ALICUDIPORTO",
        "zip": "98050",
        "province": "ME",
        "extracharge": 10.91
    }, {
        "city": "ALLUMIERE",
        "shortname": "ALLUMIERE",
        "zip": "00051",
        "province": "RM",
        "extracharge": 10.91
    }, {
        "city": "ALPE DI SIUSI",
        "shortname": "ALPEDISIUSI",
        "zip": "39040",
        "province": "BZ",
        "extracharge": 10.91
    }, {
        "city": "ANACAPRI",
        "shortname": "ANACAPRI",
        "zip": "80071",
        "province": "NA",
        "extracharge": 10.91
    }, {
        "city": "ANTERSELVA DI MEZZO",
        "shortname": "ANTERSELVADIMEZZO",
        "zip": "39030",
        "province": "BZ",
        "extracharge": 10.91
    }, {
        "city": "APRICA",
        "shortname": "APRICA",
        "zip": "23031",
        "province": "SO",
        "extracharge": 10.91
    }, {
        "city": "APRIGLIANO",
        "shortname": "APRIGLIANO",
        "zip": "87051",
        "province": "CS",
        "extracharge": 10.91
    }, {
        "city": "ARIA DI LUPI",
        "shortname": "ARIADILUPI",
        "zip": "87035",
        "province": "CS",
        "extracharge": 10.91
    }, {
        "city": "ARSITA",
        "shortname": "ARSITA",
        "zip": "64031",
        "province": "TE",
        "extracharge": 10.91
    }, {
        "city": "ASINARA CALA D'OLIVA",
        "shortname": "ASINARACALAD'OLIVA",
        "zip": "07046",
        "province": "SS",
        "extracharge": 10.91
    }, {
        "city": "ASINARA LAZZARETTO",
        "shortname": "ASINARALAZZARETTO",
        "zip": "07046",
        "province": "SS",
        "extracharge": 10.91
    }, {
        "city": "AVIGNA",
        "shortname": "AVIGNA",
        "zip": "39050",
        "province": "BZ",
        "extracharge": 10.91
    }, {
        "city": "BARANO D'ISCHIA",
        "shortname": "BARANOD'ISCHIA",
        "zip": "80070",
        "province": "NA",
        "extracharge": 10.91
    }, {
        "city": "BISENTI",
        "shortname": "BISENTI",
        "zip": "64033",
        "province": "TE",
        "extracharge": 10.91
    }, {
        "city": "BLEGGIO SUPERIORE",
        "shortname": "BLEGGIOSUPERIORE",
        "zip": "38071",
        "province": "TN",
        "extracharge": 10.91
    }, {
        "city": "BOJANO",
        "shortname": "BOJANO",
        "zip": "86021",
        "province": "CB",
        "extracharge": 10.91
    }, {
        "city": "BONDONE",
        "shortname": "BONDONE",
        "zip": "38080",
        "province": "TN",
        "extracharge": 10.91
    }, {
        "city": "BORGIALLO",
        "shortname": "BORGIALLO",
        "zip": "10080",
        "province": "TO",
        "extracharge": 10.91
    }, {
        "city": "BOSIO",
        "shortname": "BOSIO",
        "zip": "15060",
        "province": "AL",
        "extracharge": 10.91
    }, {
        "city": "BOVINO",
        "shortname": "BOVINO",
        "zip": "71023",
        "province": "FG",
        "extracharge": 10.91
    }, {
        "city": "BRIGA ALTA",
        "shortname": "BRIGAALTA",
        "zip": "18025",
        "province": "CN",
        "extracharge": 10.91
    }, {
        "city": "BUGLIO IN MONTE",
        "shortname": "BUGLIOINMONTE",
        "zip": "23010",
        "province": "SO",
        "extracharge": 10.91
    }, {
        "city": "BUGNARA",
        "shortname": "BUGNARA",
        "zip": "67030",
        "province": "AQ",
        "extracharge": 10.91
    }, {
        "city": "BURANO",
        "shortname": "BURANO",
        "zip": "30142",
        "province": "VE",
        "extracharge": 10.91
    }, {
        "city": "CABANNE",
        "shortname": "CABANNE",
        "zip": "16048",
        "province": "GE",
        "extracharge": 10.91
    }, {
        "city": "CALA REALE",
        "shortname": "CALAREALE",
        "zip": "07046",
        "province": "SS",
        "extracharge": 10.91
    }, {
        "city": "CALASCIO",
        "shortname": "CALASCIO",
        "zip": "67020",
        "province": "AQ",
        "extracharge": 10.91
    }, {
        "city": "CAMARDA DI APRIGLIANO",
        "shortname": "CAMARDADIAPRIGLIANO",
        "zip": "87051",
        "province": "CS",
        "extracharge": 10.91
    }, {
        "city": "CAMPESE",
        "shortname": "CAMPESE",
        "zip": "58012",
        "province": "GR",
        "extracharge": 10.91
    }, {
        "city": "CAMPITELLO MATESE",
        "shortname": "CAMPITELLOMATESE",
        "zip": "86027",
        "province": "CB",
        "extracharge": 10.91
    }, {
        "city": "CAMPO NELL'ELBA",
        "shortname": "CAMPONELL'ELBA",
        "zip": "57034",
        "province": "LI",
        "extracharge": 10.91
    }, {
        "city": "CAMPOCATINO",
        "shortname": "CAMPOCATINO",
        "zip": "03016",
        "province": "FR",
        "extracharge": 10.91
    }, {
        "city": "CAMPOLASTA",
        "shortname": "CAMPOLASTA",
        "zip": "39058",
        "province": "BZ",
        "extracharge": 10.91
    }, {
        "city": "CAMPOTOSTO",
        "shortname": "CAMPOTOSTO",
        "zip": "67013",
        "province": "AQ",
        "extracharge": 10.91
    }, {
        "city": "CANNA",
        "shortname": "CANNA",
        "zip": "87070",
        "province": "CS",
        "extracharge": 10.91
    }, {
        "city": "CANNETO",
        "shortname": "CANNETO",
        "zip": "98055",
        "province": "ME",
        "extracharge": 10.91
    }, {
        "city": "CANNETO LIPARI",
        "shortname": "CANNETOLIPARI",
        "zip": "98055",
        "province": "ME",
        "extracharge": 10.91
    }, {
        "city": "CANSANO",
        "shortname": "CANSANO",
        "zip": "67030",
        "province": "AQ",
        "extracharge": 10.91
    }, {
        "city": "CANTALUPO LIGURE",
        "shortname": "CANTALUPOLIGURE",
        "zip": "15060",
        "province": "AL",
        "extracharge": 10.91
    }, {
        "city": "CANZANO",
        "shortname": "CANZANO",
        "zip": "64020",
        "province": "TE",
        "extracharge": 10.91
    }, {
        "city": "CAPODACQUA",
        "shortname": "CAPODACQUA",
        "zip": "63096",
        "province": "AP",
        "extracharge": 10.91
    }, {
        "city": "CAPOLIVERI",
        "shortname": "CAPOLIVERI",
        "zip": "57031",
        "province": "LI",
        "extracharge": 10.91
    }, {
        "city": "CAPRAIA ISOLA",
        "shortname": "CAPRAIAISOLA",
        "zip": "57032",
        "province": "LI",
        "extracharge": 10.91
    }, {
        "city": "CAPRI",
        "shortname": "CAPRI",
        "zip": "80073",
        "province": "NA",
        "extracharge": 10.91
    }, {
        "city": "CARAPELLE CALVISIO",
        "shortname": "CARAPELLECALVISIO",
        "zip": "67020",
        "province": "AQ",
        "extracharge": 10.91
    }, {
        "city": "CARLOFORTE",
        "shortname": "CARLOFORTE",
        "zip": "09014",
        "province": "CI",
        "extracharge": 10.91
    }, {
        "city": "CARPANI",
        "shortname": "CARPANI",
        "zip": "57037",
        "province": "LI",
        "extracharge": 10.91
    }, {
        "city": "CASABONA",
        "shortname": "CASABONA",
        "zip": "88822",
        "province": "KR",
        "extracharge": 10.91
    }, {
        "city": "CASACALENDA",
        "shortname": "CASACALENDA",
        "zip": "86043",
        "province": "CB",
        "extracharge": 10.91
    }, {
        "city": "CASAGLIA",
        "shortname": "CASAGLIA",
        "zip": "50034",
        "province": "FI",
        "extracharge": 10.91
    }, {
        "city": "CASAMICCIOLA TERME",
        "shortname": "CASAMICCIOLATERME",
        "zip": "80074",
        "province": "NA",
        "extracharge": 10.91
    }, {
        "city": "CASATEIA",
        "shortname": "CASATEIA",
        "zip": "39040",
        "province": "BZ",
        "extracharge": 10.91
    }, {
        "city": "CASPOGGIO",
        "shortname": "CASPOGGIO",
        "zip": "23020",
        "province": "SO",
        "extracharge": 10.91
    }, {
        "city": "CASTEL CASTAGNA",
        "shortname": "CASTELCASTAGNA",
        "zip": "64030",
        "province": "TE",
        "extracharge": 10.91
    }, {
        "city": "CASTEL DI IERI",
        "shortname": "CASTELDIIERI",
        "zip": "67020",
        "province": "AQ",
        "extracharge": 10.91
    }, {
        "city": "CASTELBIANCO",
        "shortname": "CASTELBIANCO",
        "zip": "17030",
        "province": "SV",
        "extracharge": 10.91
    }, {
        "city": "CASTELLALTO",
        "shortname": "CASTELLALTO",
        "zip": "64020",
        "province": "TE",
        "extracharge": 10.91
    }, {
        "city": "CASTELMONTE",
        "shortname": "CASTELMONTE",
        "zip": "33040",
        "province": "UD",
        "extracharge": 10.91
    }, {
        "city": "CASTELNOVO NE' MONTI",
        "shortname": "CASTELNOVONE'MONTI",
        "zip": "42035",
        "province": "RE",
        "extracharge": 10.91
    }, {
        "city": "CASTELNUOVO NE' MONTI",
        "shortname": "CASTELNUOVONE'MONTI",
        "zip": "42035",
        "province": "RE",
        "extracharge": 10.91
    }, {
        "city": "CASTELPAGANO",
        "shortname": "CASTELPAGANO",
        "zip": "82024",
        "province": "BN",
        "extracharge": 10.91
    }, {
        "city": "CASTELVECCHIO CALVISIO",
        "shortname": "CASTELVECCHIOCALVISIO",
        "zip": "67020",
        "province": "AQ",
        "extracharge": 10.91
    }, {
        "city": "CASTELVECCHIO DI ROCCA BARBENA",
        "shortname": "CASTELVECCHIODIROCCABARBENA",
        "zip": "17034",
        "province": "SV",
        "extracharge": 10.91
    }, {
        "city": "CASTROREGIO",
        "shortname": "CASTROREGIO",
        "zip": "87070",
        "province": "CS",
        "extracharge": 10.91
    }, {
        "city": "CAURIA",
        "shortname": "CAURIA",
        "zip": "39040",
        "province": "BZ",
        "extracharge": 10.91
    }, {
        "city": "CAVO",
        "shortname": "CAVO",
        "zip": "57038",
        "province": "LI",
        "extracharge": 10.91
    }, {
        "city": "CAVOLI",
        "shortname": "CAVOLI",
        "zip": "57034",
        "province": "LI",
        "extracharge": 10.91
    }, {
        "city": "CERMIGNANO",
        "shortname": "CERMIGNANO",
        "zip": "64037",
        "province": "TE",
        "extracharge": 10.91
    }, {
        "city": "CERQUETO DEL TRONTO",
        "shortname": "CERQUETODELTRONTO",
        "zip": "64010",
        "province": "TE",
        "extracharge": 10.91
    }, {
        "city": "CEVO",
        "shortname": "CEVO",
        "zip": "23010",
        "province": "SO",
        "extracharge": 10.91
    }, {
        "city": "CHIAREGGIO",
        "shortname": "CHIAREGGIO",
        "zip": "23023",
        "province": "SO",
        "extracharge": 10.91
    }, {
        "city": "CHIESA IN VALMALENCO",
        "shortname": "CHIESAINVALMALENCO",
        "zip": "23023",
        "province": "SO",
        "extracharge": 10.91
    }, {
        "city": "CIMA PAGANELLA",
        "shortname": "CIMAPAGANELLA",
        "zip": "38010",
        "province": "TN",
        "extracharge": 10.91
    }, {
        "city": "CIRELLA",
        "shortname": "CIRELLA",
        "zip": "89040",
        "province": "RC",
        "extracharge": 10.91
    }, {
        "city": "CIVIASCO",
        "shortname": "CIVIASCO",
        "zip": "13010",
        "province": "VC",
        "extracharge": 10.91
    }, {
        "city": "CIVITELLA CASANOVA",
        "shortname": "CIVITELLACASANOVA",
        "zip": "65010",
        "province": "PE",
        "extracharge": 10.91
    }, {
        "city": "CLAUZETTO",
        "shortname": "CLAUZETTO",
        "zip": "33090",
        "province": "PN",
        "extracharge": 10.91
    }, {
        "city": "COLFERRAIO",
        "shortname": "COLFERRAIO",
        "zip": "62024",
        "province": "MC",
        "extracharge": 10.91
    }, {
        "city": "COLLEDARA",
        "shortname": "COLLEDARA",
        "zip": "64042",
        "province": "TE",
        "extracharge": 10.91
    }, {
        "city": "COLOGNA DI SOTTO",
        "shortname": "COLOGNADISOTTO",
        "zip": "39050",
        "province": "BZ",
        "extracharge": 10.91
    }, {
        "city": "CORVARA",
        "shortname": "CORVARA",
        "zip": "39033",
        "province": "BZ",
        "extracharge": 10.91
    }, {
        "city": "CORVARA IN BADIA",
        "shortname": "CORVARAINBADIA",
        "zip": "39033",
        "province": "BZ",
        "extracharge": 10.91
    }, {
        "city": "COSTALUNGA",
        "shortname": "COSTALUNGA",
        "zip": "38039",
        "province": "TN",
        "extracharge": 10.91
    }, {
        "city": "CROCE FERRATA",
        "shortname": "CROCEFERRATA",
        "zip": "89043",
        "province": "RC",
        "extracharge": 10.91
    }, {
        "city": "CRODO",
        "shortname": "CRODO",
        "zip": "28862",
        "province": "VB",
        "extracharge": 10.91
    }, {
        "city": "CROGNALETO",
        "shortname": "CROGNALETO",
        "zip": "64043",
        "province": "TE",
        "extracharge": 10.91
    }, {
        "city": "CURON VENOSTA",
        "shortname": "CURONVENOSTA",
        "zip": "39027",
        "province": "BZ",
        "extracharge": 10.91
    }, {
        "city": "DARZO",
        "shortname": "DARZO",
        "zip": "38089",
        "province": "TN",
        "extracharge": 10.91
    }, {
        "city": "DELIANUOVA",
        "shortname": "DELIANUOVA",
        "zip": "89012",
        "province": "RC",
        "extracharge": 10.91
    }, {
        "city": "DOGANA",
        "shortname": "DOGANA",
        "zip": "23029",
        "province": "SO",
        "extracharge": 10.91
    }, {
        "city": "DOGANA DI VILLA CHIAVENNA",
        "shortname": "DOGANADIVILLACHIAVENNA",
        "zip": "23029",
        "province": "SO",
        "extracharge": 10.91
    }, {
        "city": "DRENCHIA",
        "shortname": "DRENCHIA",
        "zip": "33040",
        "province": "UD",
        "extracharge": 10.91
    }, {
        "city": "ERLI",
        "shortname": "ERLI",
        "zip": "17030",
        "province": "SV",
        "extracharge": 10.91
    }, {
        "city": "ERTO E CASSO",
        "shortname": "ERTOECASSO",
        "zip": "33080",
        "province": "PN",
        "extracharge": 10.91
    }, {
        "city": "ETROUBLES",
        "shortname": "ETROUBLES",
        "zip": "11014",
        "province": "AO",
        "extracharge": 10.91
    }, {
        "city": "FAGNANO ALTO",
        "shortname": "FAGNANOALTO",
        "zip": "67020",
        "province": "AQ",
        "extracharge": 10.91
    }, {
        "city": "FAIE",
        "shortname": "FAIE",
        "zip": "17019",
        "province": "SV",
        "extracharge": 10.91
    }, {
        "city": "FAVIGNANA",
        "shortname": "FAVIGNANA",
        "zip": "91023",
        "province": "TP",
        "extracharge": 10.91
    }, {
        "city": "FILICUDI",
        "shortname": "FILICUDI",
        "zip": "98050",
        "province": "ME",
        "extracharge": 10.91
    }, {
        "city": "FILICUDI PORTO",
        "shortname": "FILICUDIPORTO",
        "zip": "98050",
        "province": "ME",
        "extracharge": 10.91
    }, {
        "city": "FIUMATA",
        "shortname": "FIUMATA",
        "zip": "02025",
        "province": "RI",
        "extracharge": 10.91
    }, {
        "city": "FIUMICELLO SANTA VENERE",
        "shortname": "FIUMICELLOSANTAVENERE",
        "zip": "85046",
        "province": "PZ",
        "extracharge": 10.91
    }, {
        "city": "FOGNANO",
        "shortname": "FOGNANO",
        "zip": "48013",
        "province": "RA",
        "extracharge": 10.91
    }, {
        "city": "FONTANEFREDDE",
        "shortname": "FONTANEFREDDE",
        "zip": "39040",
        "province": "BZ",
        "extracharge": 10.91
    }, {
        "city": "FONTANELICE",
        "shortname": "FONTANELICE",
        "zip": "40025",
        "province": "BO",
        "extracharge": 10.91
    }, {
        "city": "FONTE DI BRESCIA",
        "shortname": "FONTEDIBRESCIA",
        "zip": "62025",
        "province": "MC",
        "extracharge": 10.91
    }, {
        "city": "FONTECCHIO",
        "shortname": "FONTECCHIO",
        "zip": "67020",
        "province": "AQ",
        "extracharge": 10.91
    }, {
        "city": "FORIO",
        "shortname": "FORIO",
        "zip": "80075",
        "province": "NA",
        "extracharge": 10.91
    }, {
        "city": "FORNI AVOLTRI",
        "shortname": "FORNIAVOLTRI",
        "zip": "33020",
        "province": "UD",
        "extracharge": 10.91
    }, {
        "city": "FORNI DI SOTTO",
        "shortname": "FORNIDISOTTO",
        "zip": "33020",
        "province": "UD",
        "extracharge": 10.91
    }, {
        "city": "FUTANI",
        "shortname": "FUTANI",
        "zip": "84050",
        "province": "SA",
        "extracharge": 10.91
    }, {
        "city": "GAGLIANO ATERNO",
        "shortname": "GAGLIANOATERNO",
        "zip": "67020",
        "province": "AQ",
        "extracharge": 10.91
    }, {
        "city": "GAMBERALE",
        "shortname": "GAMBERALE",
        "zip": "66040",
        "province": "CH",
        "extracharge": 10.91
    }, {
        "city": "GIANNUTRI",
        "shortname": "GIANNUTRI",
        "zip": "58019",
        "province": "GR",
        "extracharge": 10.91
    }, {
        "city": "GIGLIO CAMPESE",
        "shortname": "GIGLIOCAMPESE",
        "zip": "58012",
        "province": "GR",
        "extracharge": 10.91
    }, {
        "city": "GIGLIO CASTELLO",
        "shortname": "GIGLIOCASTELLO",
        "zip": "58012",
        "province": "GR",
        "extracharge": 10.91
    }, {
        "city": "GIGLIO ISOLA",
        "shortname": "GIGLIOISOLA",
        "zip": "58012",
        "province": "GR",
        "extracharge": 10.91
    }, {
        "city": "GIGLIO PORTO",
        "shortname": "GIGLIOPORTO",
        "zip": "58012",
        "province": "GR",
        "extracharge": 10.91
    }, {
        "city": "GINOSTRA",
        "shortname": "GINOSTRA",
        "zip": "98050",
        "province": "ME",
        "extracharge": 10.91
    }, {
        "city": "GINOSTRA DI LIPARI",
        "shortname": "GINOSTRADILIPARI",
        "zip": "98050",
        "province": "ME",
        "extracharge": 10.91
    }, {
        "city": "GIOVO",
        "shortname": "GIOVO",
        "zip": "17042",
        "province": "SV",
        "extracharge": 10.91
    }, {
        "city": "GIUDECCA",
        "shortname": "GIUDECCA",
        "zip": "30133",
        "province": "VE",
        "extracharge": 10.91
    }, {
        "city": "GIULIOPOLI",
        "shortname": "GIULIOPOLI",
        "zip": "66040",
        "province": "CH",
        "extracharge": 10.91
    }, {
        "city": "GIUSVALLA",
        "shortname": "GIUSVALLA",
        "zip": "17010",
        "province": "SV",
        "extracharge": 10.91
    }, {
        "city": "GOMAGOI",
        "shortname": "GOMAGOI",
        "zip": "39029",
        "province": "BZ",
        "extracharge": 10.91
    }, {
        "city": "GORGONA ISOLA",
        "shortname": "GORGONAISOLA",
        "zip": "57128",
        "province": "LI",
        "extracharge": 10.91
    }, {
        "city": "GRECI",
        "shortname": "GRECI",
        "zip": "87035",
        "province": "CS",
        "extracharge": 10.91
    }, {
        "city": "ISCHIA",
        "shortname": "ISCHIA",
        "zip": "80077",
        "province": "NA",
        "extracharge": 10.91
    }, {
        "city": "ISCHIA PONTE",
        "shortname": "ISCHIAPONTE",
        "zip": "80077",
        "province": "NA",
        "extracharge": 10.91
    }, {
        "city": "ISCHIA PORTO",
        "shortname": "ISCHIAPORTO",
        "zip": "80077",
        "province": "NA",
        "extracharge": 10.91
    }, {
        "city": "ISCHIA SAN MICHELE",
        "shortname": "ISCHIASANMICHELE",
        "zip": "80077",
        "province": "NA",
        "extracharge": 10.91
    }, {
        "city": "ISOLA",
        "shortname": "ISOLA",
        "zip": "43025",
        "province": "PR",
        "extracharge": 10.91
    }, {
        "city": "ISOLA DEL GIGLIO",
        "shortname": "ISOLADELGIGLIO",
        "zip": "58012",
        "province": "GR",
        "extracharge": 10.91
    }, {
        "city": "ISOLA DI ALBARELLA",
        "shortname": "ISOLADIALBARELLA",
        "zip": "45010",
        "province": "RO",
        "extracharge": 10.91
    }, {
        "city": "ISOLA DI CAPRERA",
        "shortname": "ISOLADICAPRERA",
        "zip": "07024",
        "province": "OT",
        "extracharge": 10.91
    }, {
        "city": "ISOLA DI PALANZANO",
        "shortname": "ISOLADIPALANZANO",
        "zip": "43025",
        "province": "PR",
        "extracharge": 10.91
    }, {
        "city": "ISOLA FOSSARA",
        "shortname": "ISOLAFOSSARA",
        "zip": "06027",
        "province": "PG",
        "extracharge": 10.91
    }, {
        "city": "ISOLA MAGGIORE",
        "shortname": "ISOLAMAGGIORE",
        "zip": "06069",
        "province": "PG",
        "extracharge": 10.91
    }, {
        "city": "ISOLA PALMARIA",
        "shortname": "ISOLAPALMARIA",
        "zip": "19025",
        "province": "SP",
        "extracharge": 10.91
    }, {
        "city": "ISOLA SAN SERVOLO",
        "shortname": "ISOLASANSERVOLO",
        "zip": "30124",
        "province": "VE",
        "extracharge": 10.91
    }, {
        "city": "ISOLA SANT'ANTONIO",
        "shortname": "ISOLASANT'ANTONIO",
        "zip": "15050",
        "province": "AL",
        "extracharge": 10.91
    }, {
        "city": "ISOLE TREMITI",
        "shortname": "ISOLETREMITI",
        "zip": "71040",
        "province": "FG",
        "extracharge": 10.91
    }, {
        "city": "KAMMA",
        "shortname": "KAMMA",
        "zip": "91017",
        "province": "TP",
        "extracharge": 10.91
    }, {
        "city": "LA MADDALENA",
        "shortname": "LAMADDALENA",
        "zip": "07024",
        "province": "OT",
        "extracharge": 10.91
    }, {
        "city": "LA PILA",
        "shortname": "LAPILA",
        "zip": "57034",
        "province": "LI",
        "extracharge": 10.91
    }, {
        "city": "LACCO AMENO",
        "shortname": "LACCOAMENO",
        "zip": "80076",
        "province": "NA",
        "extracharge": 10.91
    }, {
        "city": "LAGO",
        "shortname": "LAGO",
        "zip": "87035",
        "province": "CS",
        "extracharge": 10.91
    }, {
        "city": "LAINO BORGO",
        "shortname": "LAINOBORGO",
        "zip": "87014",
        "province": "CS",
        "extracharge": 10.91
    }, {
        "city": "LAINO CASTELLO",
        "shortname": "LAINOCASTELLO",
        "zip": "87015",
        "province": "CS",
        "extracharge": 10.91
    }, {
        "city": "LAMPEDUSA",
        "shortname": "LAMPEDUSA",
        "zip": "92010",
        "province": "AG",
        "extracharge": 10.91
    }, {
        "city": "LAMPEDUSA E LINOSA",
        "shortname": "LAMPEDUSAELINOSA",
        "zip": "92010",
        "province": "AG",
        "extracharge": 10.91
    }, {
        "city": "LANZADA",
        "shortname": "LANZADA",
        "zip": "23020",
        "province": "SO",
        "extracharge": 10.91
    }, {
        "city": "LAUREGNO",
        "shortname": "LAUREGNO",
        "zip": "39040",
        "province": "BZ",
        "extracharge": 10.91
    }, {
        "city": "LAZFONS",
        "shortname": "LAZFONS",
        "zip": "39043",
        "province": "BZ",
        "extracharge": 10.91
    }, {
        "city": "LENI",
        "shortname": "LENI",
        "zip": "98050",
        "province": "ME",
        "extracharge": 10.91
    }, {
        "city": "LENOLA",
        "shortname": "LENOLA",
        "zip": "04025",
        "province": "LT",
        "extracharge": 10.91
    }, {
        "city": "LEOFARA",
        "shortname": "LEOFARA",
        "zip": "64010",
        "province": "TE",
        "extracharge": 10.91
    }, {
        "city": "LEVANZO",
        "shortname": "LEVANZO",
        "zip": "91023",
        "province": "TP",
        "extracharge": 10.91
    }, {
        "city": "LIDO",
        "shortname": "LIDO",
        "zip": "30126",
        "province": "VE",
        "extracharge": 10.91
    }, {
        "city": "LIGOSULLO",
        "shortname": "LIGOSULLO",
        "zip": "33020",
        "province": "UD",
        "extracharge": 10.91
    }, {
        "city": "LINGUA",
        "shortname": "LINGUA",
        "zip": "98050",
        "province": "ME",
        "extracharge": 10.91
    }, {
        "city": "LINOSA",
        "shortname": "LINOSA",
        "zip": "92010",
        "province": "AG",
        "extracharge": 10.91
    }, {
        "city": "LIPARI",
        "shortname": "LIPARI",
        "zip": "98055",
        "province": "ME",
        "extracharge": 10.91
    }, {
        "city": "LIVIGNO",
        "shortname": "LIVIGNO",
        "zip": "23030",
        "province": "SO",
        "extracharge": 10.91
    }, {
        "city": "LOCANA",
        "shortname": "LOCANA",
        "zip": "10080",
        "province": "TO",
        "extracharge": 10.91
    }, {
        "city": "LONGIARU'",
        "shortname": "LONGIARU'",
        "zip": "39030",
        "province": "BZ",
        "extracharge": 10.91
    }, {
        "city": "LONGOBUCCO",
        "shortname": "LONGOBUCCO",
        "zip": "87066",
        "province": "CS",
        "extracharge": 10.91
    }, {
        "city": "LUSON",
        "shortname": "LUSON",
        "zip": "39040",
        "province": "BZ",
        "extracharge": 10.91
    }, {
        "city": "LUTIRANO",
        "shortname": "LUTIRANO",
        "zip": "50034",
        "province": "FI",
        "extracharge": 10.91
    }, {
        "city": "MAGAZZINI",
        "shortname": "MAGAZZINI",
        "zip": "57037",
        "province": "LI",
        "extracharge": 10.91
    }, {
        "city": "MALAMOCCO",
        "shortname": "MALAMOCCO",
        "zip": "30126",
        "province": "VE",
        "extracharge": 10.91
    }, {
        "city": "MALFA",
        "shortname": "MALFA",
        "zip": "98050",
        "province": "ME",
        "extracharge": 10.91
    }, {
        "city": "MARATEA",
        "shortname": "MARATEA",
        "zip": "85046",
        "province": "PZ",
        "extracharge": 10.91
    }, {
        "city": "MARATEA PORTO",
        "shortname": "MARATEAPORTO",
        "zip": "85046",
        "province": "PZ",
        "extracharge": 10.91
    }, {
        "city": "MARCIANA",
        "shortname": "MARCIANA",
        "zip": "57030",
        "province": "LI",
        "extracharge": 10.91
    }, {
        "city": "MARCIANA MARINA",
        "shortname": "MARCIANAMARINA",
        "zip": "57033",
        "province": "LI",
        "extracharge": 10.91
    }, {
        "city": "MARETA",
        "shortname": "MARETA",
        "zip": "39040",
        "province": "BZ",
        "extracharge": 10.91
    }, {
        "city": "MARETTIMO",
        "shortname": "MARETTIMO",
        "zip": "91010",
        "province": "TP",
        "extracharge": 10.91
    }, {
        "city": "MARINA DI CAMPO",
        "shortname": "MARINADICAMPO",
        "zip": "57034",
        "province": "LI",
        "extracharge": 10.91
    }, {
        "city": "MARINA GRANDE DI CAPRI",
        "shortname": "MARINAGRANDEDICAPRI",
        "zip": "80073",
        "province": "NA",
        "extracharge": 10.91
    }, {
        "city": "MASSA",
        "shortname": "MASSA",
        "zip": "85046",
        "province": "PZ",
        "extracharge": 10.91
    }, {
        "city": "MAZIA",
        "shortname": "MAZIA",
        "zip": "39024",
        "province": "BZ",
        "extracharge": 10.91
    }, {
        "city": "MERCATALE",
        "shortname": "MERCATALE",
        "zip": "59024",
        "province": "PO",
        "extracharge": 10.91
    }, {
        "city": "MERCATALE VERNIO",
        "shortname": "MERCATALEVERNIO",
        "zip": "59024",
        "province": "PO",
        "extracharge": 10.91
    }, {
        "city": "MISURINA",
        "shortname": "MISURINA",
        "zip": "32041",
        "province": "BL",
        "extracharge": 10.91
    }, {
        "city": "MONETA",
        "shortname": "MONETA",
        "zip": "07024",
        "province": "OT",
        "extracharge": 10.91
    }, {
        "city": "MONTAGNE",
        "shortname": "MONTAGNE",
        "zip": "38070",
        "province": "TN",
        "extracharge": 10.91
    }, {
        "city": "MONTE AMIATA",
        "shortname": "MONTEAMIATA",
        "zip": "53024",
        "province": "SI",
        "extracharge": 10.91
    }, {
        "city": "MONTE ISOLA",
        "shortname": "MONTEISOLA",
        "zip": "25050",
        "province": "BS",
        "extracharge": 10.91
    }, {
        "city": "MONTE SAN PIETRO",
        "shortname": "MONTESANPIETRO",
        "zip": "39050",
        "province": "BZ",
        "extracharge": 10.91
    }, {
        "city": "MONTE SAN VIGILIO",
        "shortname": "MONTESANVIGILIO",
        "zip": "39011",
        "province": "BZ",
        "extracharge": 10.91
    }, {
        "city": "MONTECAMPIONE",
        "shortname": "MONTECAMPIONE",
        "zip": "25040",
        "province": "BS",
        "extracharge": 10.91
    }, {
        "city": "MONTECHIARO",
        "shortname": "MONTECHIARO",
        "zip": "39026",
        "province": "BZ",
        "extracharge": 10.91
    }, {
        "city": "MONTEFIORINO",
        "shortname": "MONTEFIORINO",
        "zip": "41045",
        "province": "MO",
        "extracharge": 10.91
    }, {
        "city": "MONTEFRANCO",
        "shortname": "MONTEFRANCO",
        "zip": "39020",
        "province": "BZ",
        "extracharge": 10.91
    }, {
        "city": "MONTEFRANCO IN VENOSTA",
        "shortname": "MONTEFRANCOINVENOSTA",
        "zip": "39020",
        "province": "BZ",
        "extracharge": 10.91
    }, {
        "city": "MONTERONE",
        "shortname": "MONTERONE",
        "zip": "80075",
        "province": "NA",
        "extracharge": 10.91
    }, {
        "city": "MONTICELLO AMIATA",
        "shortname": "MONTICELLOAMIATA",
        "zip": "58044",
        "province": "GR",
        "extracharge": 10.91
    }, {
        "city": "MONTICELLO DELL'AMIATA",
        "shortname": "MONTICELLODELL'AMIATA",
        "zip": "58044",
        "province": "GR",
        "extracharge": 10.91
    }, {
        "city": "MORCA",
        "shortname": "MORCA",
        "zip": "13019",
        "province": "VC",
        "extracharge": 10.91
    }, {
        "city": "MORTER",
        "shortname": "MORTER",
        "zip": "39021",
        "province": "BZ",
        "extracharge": 10.91
    }, {
        "city": "MURANO",
        "shortname": "MURANO",
        "zip": "30141",
        "province": "VE",
        "extracharge": 10.91
    }, {
        "city": "NASINO",
        "shortname": "NASINO",
        "zip": "17030",
        "province": "SV",
        "extracharge": 10.91
    }, {
        "city": "NIBBIANO",
        "shortname": "NIBBIANO",
        "zip": "29010",
        "province": "PC",
        "extracharge": 10.91
    }, {
        "city": "NOCARA",
        "shortname": "NOCARA",
        "zip": "87070",
        "province": "CS",
        "extracharge": 10.91
    }, {
        "city": "NOVA LEVANTE",
        "shortname": "NOVALEVANTE",
        "zip": "39056",
        "province": "BZ",
        "extracharge": 10.91
    }, {
        "city": "OLMI",
        "shortname": "OLMI",
        "zip": "39040",
        "province": "BZ",
        "extracharge": 10.91
    }, {
        "city": "ONZO",
        "shortname": "ONZO",
        "zip": "17037",
        "province": "SV",
        "extracharge": 10.91
    }, {
        "city": "ORIOLO",
        "shortname": "ORIOLO",
        "zip": "87073",
        "province": "CS",
        "extracharge": 10.91
    }, {
        "city": "PACENTRO",
        "shortname": "PACENTRO",
        "zip": "67030",
        "province": "AQ",
        "extracharge": 10.91
    }, {
        "city": "PALO",
        "shortname": "PALO",
        "zip": "17046",
        "province": "SV",
        "extracharge": 10.91
    }, {
        "city": "PANAREA",
        "shortname": "PANAREA",
        "zip": "98050",
        "province": "ME",
        "extracharge": 10.91
    }, {
        "city": "PANEVEGGIO",
        "shortname": "PANEVEGGIO",
        "zip": "38037",
        "province": "TN",
        "extracharge": 10.91
    }, {
        "city": "PANTELLERIA",
        "shortname": "PANTELLERIA",
        "zip": "91017",
        "province": "TP",
        "extracharge": 10.91
    }, {
        "city": "PANTELLERIA AEROPORTO",
        "shortname": "PANTELLERIAAEROPORTO",
        "zip": "91017",
        "province": "TP",
        "extracharge": 10.91
    }, {
        "city": "PANZA",
        "shortname": "PANZA",
        "zip": "80075",
        "province": "NA",
        "extracharge": 10.91
    }, {
        "city": "PASCELLATA",
        "shortname": "PASCELLATA",
        "zip": "64010",
        "province": "TE",
        "extracharge": 10.91
    }, {
        "city": "PASSO COSTALUNGA",
        "shortname": "PASSOCOSTALUNGA",
        "zip": "38039",
        "province": "TN",
        "extracharge": 10.91
    }, {
        "city": "PASSO DEL BOCCO",
        "shortname": "PASSODELBOCCO",
        "zip": "16046",
        "province": "GE",
        "extracharge": 10.91
    }, {
        "city": "PASSO DEL TONALE",
        "shortname": "PASSODELTONALE",
        "zip": "38029",
        "province": "TN",
        "extracharge": 10.91
    }, {
        "city": "PASSO MENDOLA",
        "shortname": "PASSOMENDOLA",
        "zip": "38010",
        "province": "BZ",
        "extracharge": 10.91
    }, {
        "city": "PASSO ROLLE",
        "shortname": "PASSOROLLE",
        "zip": "38037",
        "province": "TN",
        "extracharge": 10.91
    }, {
        "city": "PASSO SAN PELLEGRINO DI MOENA",
        "shortname": "PASSOSANPELLEGRINODIMOENA",
        "zip": "38035",
        "province": "TN",
        "extracharge": 10.91
    }, {
        "city": "PELLESTRINA",
        "shortname": "PELLESTRINA",
        "zip": "30126",
        "province": "VE",
        "extracharge": 10.91
    }, {
        "city": "PERTICARO",
        "shortname": "PERTICARO",
        "zip": "88823",
        "province": "KR",
        "extracharge": 10.91
    }, {
        "city": "PESCHIERA MARAGLIO",
        "shortname": "PESCHIERAMARAGLIO",
        "zip": "25050",
        "province": "BS",
        "extracharge": 10.91
    }, {
        "city": "PIAGGIA",
        "shortname": "PIAGGIA",
        "zip": "18025",
        "province": "CN",
        "extracharge": 10.91
    }, {
        "city": "PIAMPALUDO",
        "shortname": "PIAMPALUDO",
        "zip": "17046",
        "province": "SV",
        "extracharge": 10.91
    }, {
        "city": "PIANA DI CERCHIARA",
        "shortname": "PIANADICERCHIARA",
        "zip": "87070",
        "province": "CS",
        "extracharge": 10.91
    }, {
        "city": "PIANOCONTE",
        "shortname": "PIANOCONTE",
        "zip": "98055",
        "province": "ME",
        "extracharge": 10.91
    }, {
        "city": "PIANOSA",
        "shortname": "PIANOSA",
        "zip": "57034",
        "province": "LI",
        "extracharge": 10.91
    }, {
        "city": "PIANOSA ISOLA",
        "shortname": "PIANOSAISOLA",
        "zip": "57034",
        "province": "LI",
        "extracharge": 10.91
    }, {
        "city": "PIAZZA BREMBANA",
        "shortname": "PIAZZABREMBANA",
        "zip": "24014",
        "province": "BG",
        "extracharge": 10.91
    }, {
        "city": "PIEDIMONTE D'ISCHIA",
        "shortname": "PIEDIMONTED'ISCHIA",
        "zip": "80077",
        "province": "NA",
        "extracharge": 10.91
    }, {
        "city": "PINO LAGO MAGGIORE",
        "shortname": "PINOLAGOMAGGIORE",
        "zip": "21010",
        "province": "VA",
        "extracharge": 10.91
    }, {
        "city": "PINO SULLA SPONDA DEL LAGO MAGGIORE",
        "shortname": "PINOSULLASPONDADELLAGOMAGGIORE",
        "zip": "21010",
        "province": "VA",
        "extracharge": 10.91
    }, {
        "city": "PLATACI",
        "shortname": "PLATACI",
        "zip": "87070",
        "province": "CS",
        "extracharge": 10.91
    }, {
        "city": "POGGIO",
        "shortname": "POGGIO",
        "zip": "57030",
        "province": "LI",
        "extracharge": 10.91
    }, {
        "city": "POMARANCE",
        "shortname": "POMARANCE",
        "zip": "56045",
        "province": "PI",
        "extracharge": 10.91
    }, {
        "city": "POMONTE",
        "shortname": "POMONTE",
        "zip": "57030",
        "province": "LI",
        "extracharge": 10.91
    }, {
        "city": "PONTE ARCHE",
        "shortname": "PONTEARCHE",
        "zip": "38077",
        "province": "TN",
        "extracharge": 10.91
    }, {
        "city": "PONZA",
        "shortname": "PONZA",
        "zip": "04027",
        "province": "LT",
        "extracharge": 10.91
    }, {
        "city": "PORTO AZZURRO",
        "shortname": "PORTOAZZURRO",
        "zip": "57036",
        "province": "LI",
        "extracharge": 10.91
    }, {
        "city": "PORTOFERRAIO",
        "shortname": "PORTOFERRAIO",
        "zip": "57037",
        "province": "LI",
        "extracharge": 10.91
    }, {
        "city": "PRATO ALLO STELVIO",
        "shortname": "PRATOALLOSTELVIO",
        "zip": "39026",
        "province": "BZ",
        "extracharge": 10.91
    }, {
        "city": "PREDOI",
        "shortname": "PREDOI",
        "zip": "39030",
        "province": "BZ",
        "extracharge": 10.91
    }, {
        "city": "PROCCHIO",
        "shortname": "PROCCHIO",
        "zip": "57030",
        "province": "LI",
        "extracharge": 10.91
    }, {
        "city": "PROCIDA",
        "shortname": "PROCIDA",
        "zip": "80079",
        "province": "NA",
        "extracharge": 10.91
    }, {
        "city": "PROVES",
        "shortname": "PROVES",
        "zip": "39040",
        "province": "BZ",
        "extracharge": 10.91
    }, {
        "city": "QUATTROPANI",
        "shortname": "QUATTROPANI",
        "zip": "98055",
        "province": "ME",
        "extracharge": 10.91
    }, {
        "city": "RADICONDOLI",
        "shortname": "RADICONDOLI",
        "zip": "53030",
        "province": "SI",
        "extracharge": 10.91
    }, {
        "city": "RICCIA",
        "shortname": "RICCIA",
        "zip": "86016",
        "province": "CB",
        "extracharge": 10.91
    }, {
        "city": "RIO MARINA",
        "shortname": "RIOMARINA",
        "zip": "57038",
        "province": "LI",
        "extracharge": 10.91
    }, {
        "city": "RIO NELL'ELBA",
        "shortname": "RIONELL'ELBA",
        "zip": "57039",
        "province": "LI",
        "extracharge": 10.91
    }, {
        "city": "RIVE",
        "shortname": "RIVE",
        "zip": "13030",
        "province": "VC",
        "extracharge": 10.91
    }, {
        "city": "ROCCA PIA",
        "shortname": "ROCCAPIA",
        "zip": "67030",
        "province": "AQ",
        "extracharge": 10.91
    }, {
        "city": "ROCCA SANTA MARIA",
        "shortname": "ROCCASANTAMARIA",
        "zip": "64010",
        "province": "TE",
        "extracharge": 10.91
    }, {
        "city": "ROCCARAINOLA",
        "shortname": "ROCCARAINOLA",
        "zip": "80030",
        "province": "NA",
        "extracharge": 10.91
    }, {
        "city": "ROGLIANO",
        "shortname": "ROGLIANO",
        "zip": "87054",
        "province": "CS",
        "extracharge": 10.91
    }, {
        "city": "RUFFRE' MENDOLA",
        "shortname": "RUFFRE'MENDOLA",
        "zip": "38010",
        "province": "TN",
        "extracharge": 10.91
    }, {
        "city": "SACCA FISOLA",
        "shortname": "SACCAFISOLA",
        "zip": "30133",
        "province": "VE",
        "extracharge": 10.91
    }, {
        "city": "SAINT OYEN",
        "shortname": "SAINTOYEN",
        "zip": "11014",
        "province": "AO",
        "extracharge": 10.91
    }, {
        "city": "SALA BIELLESE",
        "shortname": "SALABIELLESE",
        "zip": "13884",
        "province": "BI",
        "extracharge": 10.91
    }, {
        "city": "SAN BARTOLOMEO IN GALDO",
        "shortname": "SANBARTOLOMEOINGALDO",
        "zip": "82028",
        "province": "BN",
        "extracharge": 10.91
    }, {
        "city": "SAN BENEDETTO IN PERILLIS",
        "shortname": "SANBENEDETTOINPERILLIS",
        "zip": "67020",
        "province": "AQ",
        "extracharge": 10.91
    }, {
        "city": "SAN CLEMENTE",
        "shortname": "SANCLEMENTE",
        "zip": "30124",
        "province": "VE",
        "extracharge": 10.91
    }, {
        "city": "SAN DOMINO",
        "shortname": "SANDOMINO",
        "zip": "71040",
        "province": "FG",
        "extracharge": 10.91
    }, {
        "city": "SAN FELICE",
        "shortname": "SANFELICE",
        "zip": "39010",
        "province": "BZ",
        "extracharge": 10.91
    }, {
        "city": "SAN FRUTTUOSO",
        "shortname": "SANFRUTTUOSO",
        "zip": "16032",
        "province": "GE",
        "extracharge": 10.91
    }, {
        "city": "SAN GIOVANNI",
        "shortname": "SANGIOVANNI",
        "zip": "57037",
        "province": "LI",
        "extracharge": 10.91
    }, {
        "city": "SAN LORENZO DI SEBATO",
        "shortname": "SANLORENZODISEBATO",
        "zip": "39030",
        "province": "BZ",
        "extracharge": 10.91
    }, {
        "city": "SAN MARCELLO PISTOIESE",
        "shortname": "SANMARCELLOPISTOIESE",
        "zip": "51028",
        "province": "PT",
        "extracharge": 10.91
    }, {
        "city": "SAN MASSIMO",
        "shortname": "SANMASSIMO",
        "zip": "86027",
        "province": "CB",
        "extracharge": 10.91
    }, {
        "city": "SAN NICOLA",
        "shortname": "SANNICOLA",
        "zip": "71040",
        "province": "FG",
        "extracharge": 10.91
    }, {
        "city": "SAN NICOLA DI TREMITI",
        "shortname": "SANNICOLADITREMITI",
        "zip": "71040",
        "province": "FG",
        "extracharge": 10.91
    }, {
        "city": "SAN NICOLO' D'EGA",
        "shortname": "SANNICOLO'D'EGA",
        "zip": "39050",
        "province": "BZ",
        "extracharge": 10.91
    }, {
        "city": "SAN PIERO IN CAMPO",
        "shortname": "SANPIEROINCAMPO",
        "zip": "57034",
        "province": "LI",
        "extracharge": 10.91
    }, {
        "city": "SAN PIETRO D'OLBA",
        "shortname": "SANPIETROD'OLBA",
        "zip": "17048",
        "province": "SV",
        "extracharge": 10.91
    }, {
        "city": "SAN SEBASTIANO CURONE",
        "shortname": "SANSEBASTIANOCURONE",
        "zip": "15056",
        "province": "AL",
        "extracharge": 10.91
    }, {
        "city": "SAN VALENTINO ALLA MUTA",
        "shortname": "SANVALENTINOALLAMUTA",
        "zip": "39027",
        "province": "BZ",
        "extracharge": 10.91
    }, {
        "city": "SANT'ANTUONO D'ISCHIA",
        "shortname": "SANT'ANTUONOD'ISCHIA",
        "zip": "80077",
        "province": "NA",
        "extracharge": 10.91
    }, {
        "city": "SANT'ERASMO",
        "shortname": "SANT'ERASMO",
        "zip": "30141",
        "province": "VE",
        "extracharge": 10.91
    }, {
        "city": "SANT'ILARIO",
        "shortname": "SANT'ILARIO",
        "zip": "57034",
        "province": "LI",
        "extracharge": 10.91
    }, {
        "city": "SANT'OTTILIA IN RENON",
        "shortname": "SANT'OTTILIAINRENON",
        "zip": "39054",
        "province": "BZ",
        "extracharge": 10.91
    }, {
        "city": "SANTA CATERINA",
        "shortname": "SANTACATERINA",
        "zip": "23030",
        "province": "SO",
        "extracharge": 10.91
    }, {
        "city": "SANTA CATERINA",
        "shortname": "SANTACATERINA",
        "zip": "39020",
        "province": "BZ",
        "extracharge": 10.91
    }, {
        "city": "SANTA CATERINA VALFURVA",
        "shortname": "SANTACATERINAVALFURVA",
        "zip": "23030",
        "province": "SO",
        "extracharge": 10.91
    }, {
        "city": "SANTA MARINA SALINA",
        "shortname": "SANTAMARINASALINA",
        "zip": "98050",
        "province": "ME",
        "extracharge": 10.91
    }, {
        "city": "SANTA VALBURGA",
        "shortname": "SANTAVALBURGA",
        "zip": "39016",
        "province": "BZ",
        "extracharge": 10.91
    }, {
        "city": "SANTA VITTORIA DI LIBIOLA",
        "shortname": "SANTAVITTORIADILIBIOLA",
        "zip": "16039",
        "province": "GE",
        "extracharge": 10.91
    }, {
        "city": "SANTO STEFANO DI SESSANIO",
        "shortname": "SANTOSTEFANODISESSANIO",
        "zip": "67020",
        "province": "AQ",
        "extracharge": 10.91
    }, {
        "city": "SARENTINO",
        "shortname": "SARENTINO",
        "zip": "39058",
        "province": "BZ",
        "extracharge": 10.91
    }, {
        "city": "SASSELLO",
        "shortname": "SASSELLO",
        "zip": "17046",
        "province": "SV",
        "extracharge": 10.91
    }, {
        "city": "SAURIS",
        "shortname": "SAURIS",
        "zip": "33020",
        "province": "UD",
        "extracharge": 10.91
    }, {
        "city": "SAVELLI",
        "shortname": "SAVELLI",
        "zip": "88825",
        "province": "KR",
        "extracharge": 10.91
    }, {
        "city": "SCOPELLO",
        "shortname": "SCOPELLO",
        "zip": "13028",
        "province": "VC",
        "extracharge": 10.91
    }, {
        "city": "SECCHETO",
        "shortname": "SECCHETO",
        "zip": "57034",
        "province": "LI",
        "extracharge": 10.91
    }, {
        "city": "SELVA DEI MOLINI",
        "shortname": "SELVADEIMOLINI",
        "zip": "39030",
        "province": "BZ",
        "extracharge": 10.91
    }, {
        "city": "SENALE",
        "shortname": "SENALE",
        "zip": "39010",
        "province": "BZ",
        "extracharge": 10.91
    }, {
        "city": "SENALE SAN FELICE",
        "shortname": "SENALESANFELICE",
        "zip": "39010",
        "province": "BZ",
        "extracharge": 10.91
    }, {
        "city": "SERRARA",
        "shortname": "SERRARA",
        "zip": "80070",
        "province": "NA",
        "extracharge": 10.91
    }, {
        "city": "SESTA GODANO",
        "shortname": "SESTAGODANO",
        "zip": "19020",
        "province": "SP",
        "extracharge": 10.91
    }, {
        "city": "SESTO",
        "shortname": "SESTO",
        "zip": "39030",
        "province": "BZ",
        "extracharge": 10.91
    }, {
        "city": "SIUSI",
        "shortname": "SIUSI",
        "zip": "39040",
        "province": "BZ",
        "extracharge": 10.91
    }, {
        "city": "SOLDA",
        "shortname": "SOLDA",
        "zip": "39029",
        "province": "BZ",
        "extracharge": 10.91
    }, {
        "city": "SOVER",
        "shortname": "SOVER",
        "zip": "38048",
        "province": "TN",
        "extracharge": 10.91
    }, {
        "city": "SOVRAMONTE",
        "shortname": "SOVRAMONTE",
        "zip": "32030",
        "province": "BL",
        "extracharge": 10.91
    }, {
        "city": "SPEZZANO PICCOLO",
        "shortname": "SPEZZANOPICCOLO",
        "zip": "87050",
        "province": "CS",
        "extracharge": 10.91
    }, {
        "city": "SPIGNO SATURNIA",
        "shortname": "SPIGNOSATURNIA",
        "zip": "04020",
        "province": "LT",
        "extracharge": 10.91
    }, {
        "city": "STELVIO",
        "shortname": "STELVIO",
        "zip": "39029",
        "province": "BZ",
        "extracharge": 10.91
    }, {
        "city": "STILO",
        "shortname": "STILO",
        "zip": "89049",
        "province": "RC",
        "extracharge": 10.91
    }, {
        "city": "STORO",
        "shortname": "STORO",
        "zip": "38089",
        "province": "TN",
        "extracharge": 10.91
    }, {
        "city": "STREGNA",
        "shortname": "STREGNA",
        "zip": "33040",
        "province": "UD",
        "extracharge": 10.91
    }, {
        "city": "STROMBOLI",
        "shortname": "STROMBOLI",
        "zip": "98050",
        "province": "ME",
        "extracharge": 10.91
    }, {
        "city": "TERRATI",
        "shortname": "TERRATI",
        "zip": "87035",
        "province": "CS",
        "extracharge": 10.91
    }, {
        "city": "TOLFA",
        "shortname": "TOLFA",
        "zip": "00059",
        "province": "RM",
        "extracharge": 10.91
    }, {
        "city": "TORCELLO",
        "shortname": "TORCELLO",
        "zip": "30142",
        "province": "VE",
        "extracharge": 10.91
    }, {
        "city": "TORNIMPARTE",
        "shortname": "TORNIMPARTE",
        "zip": "67049",
        "province": "AQ",
        "extracharge": 10.91
    }, {
        "city": "TORRAZZO",
        "shortname": "TORRAZZO",
        "zip": "13884",
        "province": "BI",
        "extracharge": 10.91
    }, {
        "city": "TRAFOI",
        "shortname": "TRAFOI",
        "zip": "39029",
        "province": "BZ",
        "extracharge": 10.91
    }, {
        "city": "TREPALLE",
        "shortname": "TREPALLE",
        "zip": "23030",
        "province": "SO",
        "extracharge": 10.91
    }, {
        "city": "TRIVENTO",
        "shortname": "TRIVENTO",
        "zip": "86029",
        "province": "CB",
        "extracharge": 10.91
    }, {
        "city": "TUBRE",
        "shortname": "TUBRE",
        "zip": "39020",
        "province": "BZ",
        "extracharge": 10.91
    }, {
        "city": "UMBRIATICO",
        "shortname": "UMBRIATICO",
        "zip": "88823",
        "province": "KR",
        "extracharge": 10.91
    }, {
        "city": "URBE",
        "shortname": "URBE",
        "zip": "17048",
        "province": "SV",
        "extracharge": 10.91
    }, {
        "city": "USTICA",
        "shortname": "USTICA",
        "zip": "90010",
        "province": "PA",
        "extracharge": 10.91
    }, {
        "city": "VALLE CASTELLANA",
        "shortname": "VALLECASTELLANA",
        "zip": "64010",
        "province": "TE",
        "extracharge": 10.91
    }, {
        "city": "VALVESTINO",
        "shortname": "VALVESTINO",
        "zip": "25080",
        "province": "BS",
        "extracharge": 10.91
    }, {
        "city": "VARA SUPERIORE",
        "shortname": "VARASUPERIORE",
        "zip": "17048",
        "province": "SV",
        "extracharge": 10.91
    }, {
        "city": "ISOLE MINORI LAGUNA VENETA",
        "shortname": "ISOLEMINORILAGUNAVENETA",
        "zip": "30124",
        "province": "VE",
        "extracharge": 10.91
    }, {
        "city": "ISOLE MINORI LAGUNA VENETA",
        "shortname": "ISOLEMINORILAGUNAVENETA",
        "zip": "30126",
        "province": "VE",
        "extracharge": 10.91
    }, {
        "city": "ISOLE MINORI LAGUNA VENETA",
        "shortname": "ISOLEMINORILAGUNAVENETA",
        "zip": "30133",
        "province": "VE",
        "extracharge": 10.91
    }, {
        "city": "ISOLE MINORI LAGUNA VENETA",
        "shortname": "ISOLEMINORILAGUNAVENETA",
        "zip": "30141",
        "province": "VE",
        "extracharge": 10.91
    }, {
        "city": "ISOLE MINORI LAGUNA VENETA",
        "shortname": "ISOLEMINORILAGUNAVENETA",
        "zip": "30142",
        "province": "VE",
        "extracharge": 10.91
    }, {
        "city": "VENEZIA LIDO",
        "shortname": "VENEZIALIDO",
        "zip": "30126",
        "province": "VE",
        "extracharge": 10.91
    }, {
        "city": "VENTOTENE",
        "shortname": "VENTOTENE",
        "zip": "04020",
        "province": "LT",
        "extracharge": 10.91
    }, {
        "city": "VERBICARO",
        "shortname": "VERBICARO",
        "zip": "87020",
        "province": "CS",
        "extracharge": 10.91
    }, {
        "city": "VICO",
        "shortname": "VICO",
        "zip": "87051",
        "province": "CS",
        "extracharge": 10.91
    }, {
        "city": "VILLA",
        "shortname": "VILLA",
        "zip": "39058",
        "province": "BZ",
        "extracharge": 10.91
    }, {
        "city": "VILLA SANT'ANGELO",
        "shortname": "VILLASANT'ANGELO",
        "zip": "67020",
        "province": "AQ",
        "extracharge": 10.91
    }, {
        "city": "VILLENEUVE",
        "shortname": "VILLENEUVE",
        "zip": "11018",
        "province": "AO",
        "extracharge": 10.91
    }, {
        "city": "VITICUSO",
        "shortname": "VITICUSO",
        "zip": "03040",
        "province": "FR",
        "extracharge": 10.91
    }, {
        "city": "VULCANO",
        "shortname": "VULCANO",
        "zip": "98050",
        "province": "ME",
        "extracharge": 10.91
    }, {
        "city": "VULCANO PORTO",
        "shortname": "VULCANOPORTO",
        "zip": "98050",
        "province": "ME",
        "extracharge": 10.91
    }, {
        "city": "ZINGA",
        "shortname": "ZINGA",
        "zip": "88822",
        "province": "KR",
        "extracharge": 10.91
    }, {
        "city": "ZOPPE' DI CADORE",
        "shortname": "ZOPPE'DICADORE",
        "zip": "32010",
        "province": "BL",
        "extracharge": 10.91
    }, {
        "city": "ZUBIENA",
        "shortname": "ZUBIENA",
        "zip": "13888",
        "province": "BI",
        "extracharge": 10.91
    }]
}
